A/2020 B1,e,18.5174,309.9697,154.7170,51.37060,0.0026769,0.96609624,3.0591,02/11.0/2023,2000,g 21.0,2.0
# From MPEC 2022-N37
C/2020 B3 (Rankin),e,20.7099,185.8500,324.9262,956.6818,0.0000333,0.99651102,0.0000,10/19.4013/2019,2000,g 13.0,4.0
# From MPEC 2022-H04
P/2020 B4 (Sheppard),e,11.6095,185.9793,342.1096,7.966529,0.0438329,0.19174500,19.6443,02/11.0/2023,2000,g 10.5,4.0
# From MPEC 2023-C45
C/2020 F2 (ATLAS),h,07/15.1462/2022,163.5876,250.2851,48.3373,1.005447,8.816875,2000,4.5,4.0
# From MPEC 2021-O56
C/2020 F3 (NEOWISE),e,129.0917,61.0667,37.3535,353.7387,0.0001481,0.99916416,0.0000,07/03.6742/2020,2000,g  7.5,5.2
# From MPEC 2023-C45
C/2020 F5 (MASTER),e,52.2128,350.5050,310.6818,181.8830,0.0004018,0.97622708,0.0000,03/17.7973/2021,2000,g  6.5,3.2
# From MPEC 2020-L06
C/2020 F6 (PANSTARRS),e,174.5830,207.9093,344.5716,406.6787,0.0001202,0.99137720,0.0000,04/11.7471/2020,2000,g 14.5,2.8
# From MPEC 2023-BF4
C/2020 F7 (Lemmon),e,93.9505,321.8745,227.9507,595.2761,0.0000679,0.99104277,0.0000,11/13.7721/2021,2000,g  7.0,4.0
# From MPEC 2020-KB7
C/2020 F8 (SWAN),e,110.6631,259.8879,68.1349,257.0537,0.0002391,0.99832918,0.0000,05/27.4204/2020,2000,g 10.0,4.0
# From MPEC 2020-L06
P/2020 G1 (Pimentel),e,18.5067,240.1214,207.5992,3.608476,0.1437866,0.86030104,152.4817,02/11.0/2023,2000,g 17.0,4.0
# From MPEC 2022-YB4
C/2020 H2 (Pruyne),e,124.9338,277.6627,26.6777,190.6534,0.0003744,0.99563718,0.0000,04/27.8215/2020,2000,g 14.0,3.2
# From MPEC 2020-HM1
C/2020 H3 (Wierzchos),p,06/05.7162/2020,62.5292,30.4456,2.300288,270.6227,2000,13.5,4.0
# From MPEC 2020-L06
C/2020 H4 (Leonard),e,84.4998,307.6687,117.5458,47.87648,0.0029752,0.98068461,0.0000,08/29.6358/2020,2000,g 15.0,3.2
# From MPEC 2023-B57
C/2020 H5 (Robinson),e,70.2539,210.6274,326.3516,3759,0.0000043,0.99751439,0.0000,12/10.9932/2020,2000,g  5.0,4.0
# From MPEC 2023-C45
C/2020 H6 (ATLAS),e,79.9776,213.7185,20.3153,18871,0.0000004,0.99975083,0.0000,09/30.7990/2021,2000,g  8.0,3.2
# From MPEC 2020-KB7
C/2020 H7 (Lemmon),e,135.9235,323.5194,82.6780,1405,0.0000187,0.99685380,0.0000,06/02.9510/2020,2000,g 11.0,4.0
# From MPEC 2021-N06
C/2020 H8 (PANSTARRS),e,99.6832,68.4228,128.9436,596.0677,0.0000677,0.99215630,0.0000,06/04.5040/2020,2000,g 10.5,4.0
# From MPEC 2022-ED3
A/2020 H9,e,137.8785,213.1788,312.8478,372.3753,0.0001372,0.99308485,0.0000,12/21.5727/2019,2000,g 18.0,2.0
# From MPEC 2023-C45
C/2020 J1 (SONEAR),h,04/18.6493/2021,142.3046,226.6013,341.7529,1.000791,3.353976,2000,8.5,3.2
# From MPEC 2023-C45
C/2020 K1 (PANSTARRS),h,05/09.0768/2023,89.6691,94.3548,213.9840,1.000013,3.073278,2000,5.5,4.0
# From MPEC 2021-N06
C/2020 K2 (PANSTARRS),h,08/06.3691/2020,91.0306,288.3871,67.3503,1.003946,8.879829,2000,10.8,4.0
# From MPEC 2020-KF9
C/2020 K3 (Leonard),p,06/01.0032/2020,129.0152,64.4924,1.583069,28.3546,2000,14.5,4.0
# From MPEC 2020-L06
C/2020 K4 (PANSTARRS),e,125.5817,264.1806,308.8587,23.95783,0.0084049,0.92678244,9.0279,02/11.0/2023,2000,g 16.5,4.0
# From MPEC 2021-R75
C/2020 K5 (PANSTARRS),h,06/05.5089/2021,67.1226,86.1639,249.6083,1.001419,1.536503,2000,11.0,4.0
# From MPEC 2023-C45
C/2020 K6 (Rankin),h,09/15.8404/2021,103.6498,291.5478,44.3358,1.003682,5.868874,2000,8.0,4.0
# From MPEC 2023-A50
C/2020 K7 (PANSTARRS),e,32.0412,286.0755,358.2618,99.14665,0.0009984,0.93551706,1.1997,02/11.0/2023,2000,g  8.0,4.0
# From MPEC 2021-P47
C/2020 K8 (Catalina-ATLAS),h,09/14.7719/2020,31.4288,181.5440,259.9590,1.000172,0.472279,2000,15.0,3.2
# From MPEC 2021-BE3
P/2020 K9 (Lemmon-PANSTARRS),e,23.2090,166.2420,197.0384,4.202314,0.1144119,0.32133839,83.3642,02/11.0/2023,2000,g 12.5,4.0
# From MPEC 2023-C45
P/2020 M1 (PANSTARRS),e,8.5418,142.6458,72.6316,5.317138,0.0803872,0.47415811,91.8287,02/11.0/2023,2000,g 14.5,4.0
# From MPEC 2022-H30
C/2020 M3 (ATLAS),e,23.4758,71.1711,328.5403,27.06980,0.0069980,0.95315077,5.8654,02/11.0/2023,2000,g 14.5,4.0
# From MPEC 2023-B57
A/2020 M4,h,11/24.2256/2020,160.1265,348.6222,104.6446,1.001004,5.951487,2000,14.5,2.0
# From MPC xxxxx
P/2020 MK4 (PANSTARRS),e,6.8022,0.7142,106.8401,6.200760,0.0638317,0.01156349,249.2198,02/11.0/2023,2000,g  8.0,4.0
# From MPEC 2022-YN2
C/2020 M5 (ATLAS),h,08/19.8612/2021,93.2220,352.0921,126.3123,1.000411,3.003230,2000,9.0,4.0
# From MPEC 2022-GA9
C/2020 N1 (PANSTARRS),h,03/12.3050/2021,29.7202,279.9365,186.7568,1.000446,1.318873,2000,12.5,4.0
# From MPEC 2021-P47
C/2020 N2 (ATLAS),e,161.0343,257.1484,331.3133,104.4410,0.0009234,0.98282915,0.0000,08/24.0161/2020,2000,g 16.0,3.2
# From MPEC 2022-YB4
P/2020 O1 (Lemmon-PANSTARRS),e,5.2255,175.9747,104.5071,2.645546,0.2290505,0.11892076,232.4995,02/11.0/2023,2000,g 15.5,4.0
# From MPEC 2022-Y15
C/2020 O2 (Amaral),h,08/28.5873/2021,71.7591,256.7692,10.3106,1.001783,4.862525,2000,8.0,3.2
# From MPEC 2023-C45
P/2020 O3 (PANSTARRS),e,8.4440,266.8189,81.6712,4.648159,0.0983519,0.10325822,72.9211,02/11.0/2023,2000,g 12.0,4.0
# From MPEC 2021-BE3
C/2020 P1 (NEOWISE),h,10/20.3760/2020,45.1619,53.4897,8.8883,1.000305,0.341076,2000,14.0,3.2
# From MPEC 2023-BF4
C/2020 P3 (ATLAS),h,04/21.2223/2021,61.8896,19.4653,82.2690,1.001146,6.812436,2000,6.0,4.0
# From MPEC 2022-PB4
C/2020 PV6 (PANSTARRS),e,128.2312,329.1484,71.3899,42.06441,0.0036127,0.94543311,1.8169,02/11.0/2023,2000,g 10.0,4.0
# From MPEC 2022-L66
C/2020 Q1 (Borisov),e,142.9383,52.3934,9.9478,60.80863,0.0020785,0.97833625,0.0000,08/14.4355/2020,2000,g 14.0,4.0
# From MPEC 2023-C45
C/2020 Q2 (PANSTARRS),e,3.3359,179.8305,118.2715,10.65841,0.0283247,0.49280727,31.3687,02/11.0/2023,2000,g 12.0,3.2
# From MPEC 2022-X67
C/2020 R2 (PANSTARRS),e,53.2281,195.0927,211.7835,407.7490,0.0001197,0.98849170,0.0000,02/24.8324/2022,2000,g  9.0,4.0
# From MPEC 2022-K19
C/2020 R4 (ATLAS),e,164.4550,323.2736,46.6994,99.85251,0.0009878,0.98971034,0.0000,03/02.1240/2021,2000,g 13.5,4.0
# From MPEC 2023-C45
P/2020 R5 (PANSTARRS),e,11.4461,272.9718,82.5923,4.986788,0.0885060,0.31457906,87.4046,02/11.0/2023,2000,g  9.5,6.0
# From MPEC 2021-Y10
C/2020 R6 (Rankin),e,82.8105,12.1774,271.9924,320.5417,0.0001717,0.99022452,0.0000,09/08.7266/2019,2000,g 11.0,4.0
# From MPEC 2023-B57
C/2020 R7 (ATLAS),h,09/16.2511/2022,114.8943,268.2824,347.8411,1.000246,2.956010,2000,7.0,3.2
# From MPEC 2021-BE3
P/2020 S1 (PANSTARRS),e,13.7294,129.4630,255.0081,5.991905,0.0671981,0.50774084,50.7012,02/11.0/2023,2000,g 14.0,4.0
# From MPEC 2022-ST7
C/2020 S2 (PANSTARRS),e,22.4045,197.6623,202.3348,10.21886,0.0301717,0.82809718,23.5591,02/11.0/2023,2000,g 17.0,4.0
# From MPEC 2022-C56
C/2020 S3 (Erasmus),e,20.0146,222.6034,350.0959,154.8049,0.0005117,0.99744086,0.0000,12/12.1641/2020,2000,g 13.5,3.2
# From MPEC 2023-C45
C/2020 S4 (PANSTARRS),h,02/09.2318/2023,20.5699,117.7219,20.9899,1.001212,3.369756,2000,8.5,3.2
# From MPEC 2021-BE3
P/2020 S5 (PANSTARRS),e,12.3486,316.0011,53.2033,4.053893,0.1207524,0.33853782,110.5997,02/11.0/2023,2000,g 14.5,4.0
# From MPEC 2021-BE3
P/2020 S7 (PANSTARRS),e,16.0885,328.0273,40.5687,5.030011,0.0873676,0.41071971,71.1418,02/11.0/2023,2000,g 14.5,4.0
# From MPEC 2021-P47
C/2020 S8 (Lemmon),e,108.5275,24.0680,160.2884,265.9167,0.0002273,0.99111749,0.0000,04/10.8483/2021,2000,g 12.5,4.0
# From MPEC 2022-ST7
C/2020 T2 (Palomar),e,27.8556,82.9767,150.5152,312.7357,0.0001782,0.99342187,0.0000,07/11.0862/2021,2000,g 11.0,3.2
# From MPEC 2021-N06
P/2020 T3 (PANSTARRS),e,7.2984,73.9907,357.0371,3.517003,0.1494325,0.59203710,112.2657,02/11.0/2023,2000,g 18.0,3.2
# From MPEC 2021-N06
C/2020 T4 (PANSTARRS),h,07/05.3074/2021,83.8365,50.6145,79.6083,1.000204,2.191589,2000,13.0,3.2
# From MPEC 2021-BE3
C/2020 T5 (Lemmon),e,66.5635,237.8446,90.3308,765.2839,0.0000466,0.99752910,0.0000,10/09.4076/2020,2000,g 16.0,4.0
# From MPEC 2021-N06
P/2020 U2 (PANSTARRS),e,6.4199,342.8891,84.6396,3.778006,0.1342178,0.51106957,104.2902,02/11.0/2023,2000,g 18.0,4.0
# From MPEC 2021-W31
C/2020 U3 (Rankin),e,30.1599,282.6495,124.3278,66.38013,0.0018224,0.96570023,1.3392,02/11.0/2023,2000,g 15.0,4.0
# From MPEC 2023-BF4
C/2020 U4 (PANSTARRS),h,04/09.2461/2022,167.0313,120.1770,69.8325,1.002775,5.356206,2000,7.0,4.0
# From MPEC 2022-YB4
C/2020 U5 (PANSTARRS),e,97.2717,107.3289,75.4306,3838,0.0000041,0.99902131,0.0000,04/27.9507/2022,2000,g  8.0,4.0
# From MPEC 2023-C45
C/2020 V2 (ZTF),h,05/08.5695/2023,131.6109,212.3722,162.4316,1.000908,2.227837,2000,4.9,4.0
# From MPEC 2023-C45
P/2020 V3 (PANSTARRS),e,23.0331,198.2522,249.3300,8.383448,0.0406041,0.25679077,29.7334,02/11.0/2023,2000,g  8.3,4.0
# From MPEC 2022-K19
P/2020 V4 (Rankin),e,14.2442,203.4832,257.0202,9.365791,0.0343865,0.45029854,19.7007,02/11.0/2023,2000,g  9.0,4.0
# From MPEC 2021-BE3
P/2020 W1 (Rankin),e,10.7879,124.2712,265.1094,7.213189,0.0508760,0.26631569,52.8518,02/11.0/2023,2000,g 10.0,4.0
# From MPEC 2021-BE3
C/2020 W5 (Lemmon),h,11/30.0837/2020,88.5934,75.4745,24.4931,1.000728,3.365004,2000,15.0,4.0
# From MPEC 2023-C45
P/2020 WJ5 (Lemmon),e,22.2941,177.8102,338.2032,6.016096,0.0667931,0.17131234,39.3963,02/11.0/2023,2000,g  8.5,4.0
# From MPEC 2021-P47
P/2020 X1 (ATLAS),e,31.6927,55.9940,323.4086,4.530272,0.1022157,0.36551439,95.5890,02/11.0/2023,2000,g 13.0,4.0
# From MPEC 2021-U31
C/2020 X2 (ATLAS),e,18.1853,105.4272,347.3623,16.44553,0.0147786,0.76728527,12.0739,02/11.0/2023,2000,g 10.6,4.0
# From MPEC 2021-S45
C/2020 X4 (Leonard),e,80.6058,161.8820,140.3052,40.77199,0.0037858,0.87192746,3.0929,02/11.0/2023,2000,g  9.0,4.0
# From MPEC 2023-C45
C/2020 Y2 (ATLAS),e,101.2985,26.5143,266.1223,1056,0.0000287,0.99703461,0.0000,06/17.7595/2022,2000,g  6.5,4.0
# From MPEC 2021-R75
C/2020 Y3 (ATLAS),e,83.1009,191.4423,341.9662,143.5744,0.0005729,0.98609198,0.0000,12/03.3408/2020,2000,g 13.5,4.0
# From MPEC 2023-A50
C/2021 A1 (Leonard),e,132.7028,255.8971,225.1058,151738,0.0000000,0.99999594,0.0000,01/03.2823/2022,2000,g  8.5,4.0
# From MPEC 2022-F14
C/2021 A2 (NEOWISE),e,106.9840,125.2073,338.7900,235.1473,0.0002733,0.99399490,0.0000,01/22.4693/2021,2000,g 13.5,4.0
# From MPEC 2022-ED3
